[{"OBJECT_NAME":"QIANFAN-22","OBJECT_ID":"2024-185D","EPOCH":"2026-03-09T23:31:55.028928","MEAN_MOTION":13.86341559,"ECCENTRICITY":0.00086446,"INCLINATION":88.9743,"RA_OF_ASC_NODE":69.6686,"ARG_OF_PERICENTER":90.0362,"MEAN_ANOMALY":270.1799,"EPHEMERIS_TYPE":0,"CLASSIFICATION_TYPE":"U","NORAD_CAT_ID":61555,"ELEMENT_SET_NO":999,"REV_AT_EPOCH":8102,"BSTAR":0.00027768679,"MEAN_MOTION_DOT":3.34e-6,"MEAN_MOTION_DDOT":0},{"OBJECT_NAME":"THORAD AGENA D DEB","OBJECT_ID":"1970-025DB","EPOCH":"2026-03-09T21:38:32.135712","MEAN_MOTION":13.8471643,"ECCENTRICITY":0.00089947,"INCLINATION":99.9825,"RA_OF_ASC_NODE":193.7639,"ARG_OF_PERICENTER":197.9774,"MEAN_ANOMALY":162.1062,"EPHEMERIS_TYPE":0,"CLASSIFICATION_TYPE":"U","NORAD_CAT_ID":4753,"ELEMENT_SET_NO":999,"REV_AT_EPOCH":78910,"BSTAR":0.0013995714,"MEAN_MOTION_DOT":1.526e-5,"MEAN_MOTION_DDOT":0}]
